[{"OBJECT_NAME":"OBJECT L","OBJECT_ID":"2023-085L","EPOCH":"2026-03-09T23:02:21.999840","MEAN_MOTION":15.29079976,"ECCENTRICITY":0.0005428,"INCLINATION":97.486,"RA_OF_ASC_NODE":178.8598,"ARG_OF_PERICENTER":50.8528,"MEAN_ANOMALY":309.3193,"EPHEMERIS_TYPE":0,"CLASSIFICATION_TYPE":"U","NORAD_CAT_ID":57014,"ELEMENT_SET_NO":999,"REV_AT_EPOCH":15144,"BSTAR":0.00063462603,"MEAN_MOTION_DOT":0.00017871,"MEAN_MOTION_DDOT":0},{"OBJECT_NAME":"STARLINK-35624","OBJECT_ID":"2025-240W","EPOCH":"2026-03-09T07:13:58.558080","MEAN_MOTION":15.30210705,"ECCENTRICITY":0.00013583,"INCLINATION":53.1608,"RA_OF_ASC_NODE":64.2741,"ARG_OF_PERICENTER":76.9142,"MEAN_ANOMALY":283.201,"EPHEMERIS_TYPE":0,"CLASSIFICATION_TYPE":"U","NORAD_CAT_ID":66166,"ELEMENT_SET_NO":999,"REV_AT_EPOCH":2193,"BSTAR":0.00083633548,"MEAN_MOTION_DOT":0.00024501,"MEAN_MOTION_DDOT":0}]
